      2.10          N: GNSS NAV DATA                        RINEX VERSION / TYPE
fic2rin                                 12/22/2020 00:17:33 PGM / RUN BY / DATE
                                                            END OF HEADER
31 20 12 21 23 59 44.0-8.906843140721e-05-2.387423592154e-12 0.000000000000e+00
    4.400000000000e+01 4.768750000000e+01 4.774127432999e-09-2.455242659283e+00
    2.283602952957e-06 9.949475061148e-03 8.249655365944e-06 5.153712425232e+03
    1.727840000000e+05-8.940696716309e-08 2.477153043756e+00-1.583248376846e-07
    9.566023412301e-01 2.216562500000e+02 2.212534404596e-01-8.053549748387e-09
    2.189376910622e-10 1.000000000000e+00 2.137000000000e+03 0.000000000000e+00
    2.400000000000e+00 0.000000000000e+00-1.303851604462e-08 4.400000000000e+01
    1.656000000000e+05 4.000000000000e+00
 1 20 12 22  0  0  0.0 7.924241945148e-04-5.456968210638e-12 0.000000000000e+00
    2.000000000000e+01 1.553125000000e+01 4.000523780730e-09-1.378800257525e+00
    8.158385753632e-07 1.019734586589e-02 6.837770342827e-06 5.153693132401e+03
    1.728000000000e+05 2.980232238770e-07-6.814972595078e-01-5.587935447693e-09
    9.827759835131e-01 2.591875000000e+02 8.237028826913e-01-7.873542250353e-09
    1.546492989069e-10 1.000000000000e+00 2.137000000000e+03 0.000000000000e+00
    2.400000000000e+00 0.000000000000e+00 5.122274160385e-09 2.000000000000e+01
    1.656000000000e+05 4.000000000000e+00
 3 20 12 22  0  0  0.0-3.602029755712e-05-9.890754881781e-12 0.000000000000e+00
    3.700000000000e+01-4.678125000000e+01 4.423755695753e-09-2.564424995874e+00
   -2.313405275345e-06 3.245591884479e-03 5.900859832764e-06 5.153685569763e+03
    1.728000000000e+05-3.911554813385e-08 3.570782538568e-01 1.303851604462e-08
    9.679247961243e-01 2.694375000000e+02 8.899226829318e-01-8.046049435969e-09
    2.464388365953e-11 1.000000000000e+00 2.137000000000e+03 0.000000000000e+00
    2.400000000000e+00 0.000000000000e+00 1.862645149231e-09 3.700000000000e+01
    1.656000000000e+05 4.000000000000e+00
 2 20 12 22  0  0  0.0-5.571385845542e-04-4.433786671143e-12 0.000000000000e+00
    9.700000000000e+01 1.734375000000e+01 4.614477925813e-09-1.142485624861e+00
    1.180917024612e-06 2.024605241604e-02 7.161870598793e-06 5.153577823639e+03
    1.728000000000e+05-2.719461917877e-07-7.620625514670e-01 3.576278686523e-07
    9.615569287743e-01 2.479687500000e+02-1.572255409103e+00-8.394635384545e-09
    1.282196265764e-10 1.000000000000e+00 2.137000000000e+03 0.000000000000e+00
    2.400000000000e+00 0.000000000000e+00-1.769512891769e-08 9.700000000000e+01
    1.656000000000e+05 4.000000000000e+00
 5 20 12 22  0  0  0.0-2.896366640925e-05-1.023181539495e-12 0.000000000000e+00
    9.500000000000e+01-4.118750000000e+01 4.806271629077e-09 1.461796713061e+00
   -2.168118953705e-06 6.021674722433e-03 5.494803190231e-06 5.153783727646e+03
    1.728000000000e+05-5.029141902924e-08 3.223383806531e-01-1.490116119385e-08
    9.548692602174e-01 2.740000000000e+02 8.933170405490e-01-8.320703733566e-09
   -6.428839215530e-12 1.000000000000e+00 2.137000000000e+03 0.000000000000e+00
    2.400000000000e+00 0.000000000000e+00-1.117587089539e-08 9.500000000000e+01
    1.656000000000e+05 4.000000000000e+00
 4 20 12 22  0  0  0.0-1.663500443101e-04-3.296918293927e-12 0.000000000000e+00
    1.900000000000e+02-3.365625000000e+01 4.453756945425e-09 3.557157782700e-01
   -1.717358827591e-06 9.979073656723e-04 1.015141606331e-05 5.153605432510e+03
    1.728000000000e+05 2.980232238770e-08 1.436974125363e+00 1.862645149231e-08
    9.598355569579e-01 1.821875000000e+02-3.073718535846e+00-7.966760418978e-09
    3.000124967247e-11 1.000000000000e+00 2.137000000000e+03 0.000000000000e+00
    2.400000000000e+00 0.000000000000e+00-4.190951585770e-09 9.580000000000e+02
    1.656000000000e+05 4.000000000000e+00
12 20 12 22  0  0  0.0 2.369470894337e-05-5.229594535194e-12 0.000000000000e+00
    1.400000000000e+01 1.203125000000e+01 4.434470427779e-09-2.702409326516e+00
    6.686896085739e-07 8.116207318380e-03 5.923211574554e-06 5.153583936691e+03
    1.728000000000e+05 1.955777406693e-07-2.713987552155e+00-6.519258022308e-08
    9.758743017446e-01 2.722187500000e+02 1.166878356024e+00-7.966046103509e-09
   -1.142904749427e-10 1.000000000000e+00 2.137000000000e+03 0.000000000000e+00
    2.400000000000e+00 0.000000000000e+00-1.257285475731e-08 1.400000000000e+01
    1.656000000000e+05 4.000000000000e+00
 7 20 12 22  0  0  0.0-4.384373314679e-04-7.389644451905e-12 0.000000000000e+00
    4.900000000000e+01 4.490625000000e+01 4.784485007291e-09-2.031662395122e+00
    2.095475792885e-06 1.428809855133e-02 8.061528205872e-06 5.153618688583e+03
    1.728000000000e+05 1.899898052216e-07 2.460745149147e+00-1.024454832077e-07
    9.522255799947e-01 2.155937500000e+02-2.358335481042e+00-7.969260523117e-09
    3.693010971588e-10 1.000000000000e+00 2.137000000000e+03 0.000000000000e+00
    2.400000000000e+00 0.000000000000e+00-1.117587089539e-08 4.900000000000e+01
    1.656000000000e+05 4.000000000000e+00
30 20 12 22  0  0  0.0-3.562401980162e-04-6.252776074689e-12 0.000000000000e+00
    5.000000000000e+00 4.568750000000e+01 5.175572726235e-09-2.036766292474e+00
    2.145767211914e-06 4.737919429317e-03 8.229166269302e-06 5.153769462585e+03
    1.728000000000e+05 6.332993507385e-08 2.480275068932e+00-9.872019290924e-08
    9.374884314590e-01 2.096562500000e+02-2.846016496902e+00-8.300702900451e-09
    2.510818871398e-10 1.000000000000e+00 2.137000000000e+03 0.000000000000e+00
    2.400000000000e+00 0.000000000000e+00 3.725290298462e-09 5.000000000000e+00
    1.656000000000e+05 4.000000000000e+00
24 20 12 22  0  0  0.0 4.815869033337e-06-4.547473508865e-13 0.000000000000e+00
    5.000000000000e+00 3.784375000000e+01 5.229503544099e-09-1.052292595456e+00
    2.099201083183e-06 1.072372146882e-02 7.715076208115e-06 5.153622701645e+03
    1.728000000000e+05 2.142041921616e-07 2.385113110998e+00 7.450580596924e-08
    9.355165319958e-01 2.160937500000e+02 7.125980157334e-01-8.373205920493e-09
    1.739358165535e-10 1.000000000000e+00 2.137000000000e+03 0.000000000000e+00
    2.400000000000e+00 0.000000000000e+00 2.793967723846e-09 5.000000000000e+00
    1.656000000000e+05 4.000000000000e+00
29 20 12 22  0  0  0.0-2.606497146189e-04-7.389644451905e-12 0.000000000000e+00
    3.100000000000e+01 7.875000000000e+00 3.853374794242e-09 8.365478008194e-01
    2.477318048477e-07 1.443994347937e-03 7.765367627144e-06 5.153712623596e+03
    1.728000000000e+05-7.450580596924e-09-1.666416676943e+00-1.303851604462e-08
    9.846952384063e-01 2.415625000000e+02 2.241785968001e+00-7.791753129222e-09
   -1.814361289716e-10 1.000000000000e+00 2.137000000000e+03 0.000000000000e+00
    2.400000000000e+00 0.000000000000e+00-1.024454832077e-08 3.100000000000e+01
    1.656000000000e+05 4.000000000000e+00
16 20 12 22  0  0  0.0-2.537569962442e-04-5.456968210638e-12 0.000000000000e+00
    3.000000000000e+01 1.493750000000e+01 4.464828835185e-09 1.721346812135e+00
    8.642673492432e-07 1.191784488037e-02 6.770715117455e-06 5.153620935440e+03
    1.728000000000e+05-2.905726432800e-07-2.695181213596e+00 1.378357410431e-07
    9.760129205472e-01 2.612187500000e+02 6.344828467688e-01-8.104623304378e-09
   -2.600108304947e-10 1.000000000000e+00 2.137000000000e+03 0.000000000000e+00
    2.400000000000e+00 0.000000000000e+00-1.071020960808e-08 3.000000000000e+01
    1.656000000000e+05 4.000000000000e+00
10 20 12 22  0  0  0.0-2.143811434507e-05-8.753886504564e-12 0.000000000000e+00
    3.200000000000e+01-4.990625000000e+01 4.368039089218e-09 2.900142291939e+00
   -2.544373273849e-06 6.307540228590e-03 6.239861249924e-06 5.153669958115e+03
    1.728000000000e+05-4.284083843231e-08 3.541269965708e-01-8.568167686462e-08
    9.678354498656e-01 2.631250000000e+02-2.636660575656e+00-7.961760210699e-09
    6.143113028173e-11 1.000000000000e+00 2.137000000000e+03 0.000000000000e+00
    2.400000000000e+00 0.000000000000e+00 2.328306436539e-09 3.200000000000e+01
    1.656000000000e+05 4.000000000000e+00
 9 20 12 22  0  0  0.0-3.041131421924e-04-4.320099833421e-12 0.000000000000e+00
    8.700000000000e+01-3.928125000000e+01 4.608406244332e-09 1.241762816703e+00
   -2.009794116020e-06 2.033878117800e-03 9.881332516670e-06 5.153599130630e+03
    1.728000000000e+05 1.490116119385e-08 1.387381051795e+00-4.470348358154e-08
    9.526467058334e-01 1.828125000000e+02 1.783270092197e+00-8.069621846426e-09
    1.428630936784e-11 1.000000000000e+00 2.137000000000e+03 0.000000000000e+00
    2.400000000000e+00 0.000000000000e+00 1.396983861923e-09 8.700000000000e+01
    1.656000000000e+05 4.000000000000e+00
 6 20 12 22  0  0  0.0-4.294794052839e-06-4.547473508865e-13 0.000000000000e+00
    5.500000000000e+01 1.153125000000e+01 4.057311860468e-09-9.694923874551e-01
    6.500631570816e-07 2.135445945896e-03 6.962567567825e-06 5.153674381256e+03
    1.728000000000e+05-3.911554813385e-08-6.897505781030e-01-1.862645149231e-09
    9.822739539158e-01 2.585625000000e+02-1.143115079011e+00-7.942473693053e-09
    1.753644474903e-10 1.000000000000e+00 2.137000000000e+03 0.000000000000e+00
    2.400000000000e+00 0.000000000000e+00 4.190951585770e-09 5.500000000000e+01
    1.656000000000e+05 4.000000000000e+00
15 20 12 22  0  0  0.0-1.816726289690e-04 2.614797267597e-12 0.000000000000e+00
    4.900000000000e+01-3.543750000000e+01 5.276291207279e-09-1.686335981634e-01
   -1.739710569382e-06 1.309204881545e-02 8.728355169296e-06 5.153792079926e+03
    1.728000000000e+05-2.048909664154e-08 1.292406306413e+00 2.011656761169e-07
    9.282816296731e-01 1.960312500000e+02 9.608126428689e-01-8.576785828985e-09
    4.857345185067e-11 1.000000000000e+00 2.137000000000e+03 0.000000000000e+00
    2.400000000000e+00 0.000000000000e+00-1.071020960808e-08 4.900000000000e+01
    1.656000000000e+05 4.000000000000e+00
